$$SOE
2460147.500000000, A.D. 2023-Jul-22 00:00:00.0000, 4.911762368329501E+08, -2.039261691502526E+08, -9.152927227855712E+06,
2460154.500000000, A.D. 2023-Jul-29 00:00:00.0000, 4.945972209216099E+08, -1.956888685860400E+08, -9.032565877535239E+06,
2460161.500000000, A.D. 2023-Aug-05 00:00:00.0000, 4.978586875163023E+08, -1.873883778028184E+08, -8.909291759489372E+06,
2460168.500000000, A.D. 2023-Aug-12 00:00:00.0000, 5.009596280609605E+08, -1.790273912110228E+08, -8.783145346482761E+06,
2460175.500000000, A.D. 2023-Aug-19 00:00:00.0000, 5.038990665330840E+08, -1.706086144465418E+08, -8.654167692497902E+06,
2460182.500000000, A.D. 2023-Aug-26 00:00:00.0000, 5.066760593744649E+08, -1.621347644102733E+08, -8.522400428279988E+06,
2460189.500000000, A.D. 2023-Sep-02 00:00:00.0000, 5.092896954207398E+08, -1.536085693886099E+08, -8.387885761920765E+06,
2460196.500000000, A.D. 2023-Sep-09 00:00:00.0000, 5.117390958655086E+08, -1.450327692949796E+08, -8.250666491186544E+06,
2460203.500000000, A.D. 2023-Sep-16 00:00:00.0000, 5.140234144268056E+08, -1.364101160889771E+08, -8.110786047757544E+06,
2460210.500000000, A.D. 2023-Sep-23 00:00:00.0000, 5.161418381322100E+08, -1.277433740844822E+08, -7.968288588091776E+06,
2460217.500000000, A.D. 2023-Sep-30 00:00:00.0000, 5.180935883841794E+08, -1.190353189542165E+08, -7.823219002302147E+06,
2460224.500000000, A.D. 2023-Oct-07 00:00:00.0000, 5.198779199544551E+08, -1.102887359730137E+08, -7.675622669268012E+06,
2460231.500000000, A.D. 2023-Oct-14 00:00:00.0000, 5.214941189489557E+08, -1.015064208137133E+08, -7.525545323956266E+06,
2460238.500000000, A.D. 2023-Oct-21 00:00:00.0000, 5.229415029714467E+08, -9.269118129295039E+07, -7.373033201992687E+06,
2460245.500000000, A.D. 2023-Oct-28 00:00:00.0000, 5.242194220615842E+08, -8.384583780601178E+07, -7.218133145908270E+06,
2460252.500000000, A.D. 2023-Nov-04 00:00:00.0000, 5.253272591577354E+08, -7.497322322062072E+07, -7.060892621083021E+06,
2460259.500000000, A.D. 2023-Nov-11 00:00:00.0000, 5.262644302624182E+08, -6.607618282906017E+07, -6.901359706422571E+06,
2460266.500000000, A.D. 2023-Nov-18 00:00:00.0000, 5.270303845299847E+08, -5.715757442234913E+07, -6.739583084893387E+06,
2460273.500000000, A.D. 2023-Nov-25 00:00:00.0000, 5.276246043495165E+08, -4.822026846320862E+07, -6.575612038513845E+06,
2460280.500000000, A.D. 2023-Dec-02 00:00:00.0000, 5.280466054513468E+08, -3.926714836828968E+07, -6.409496451106720E+06,
2460287.500000000, A.D. 2023-Dec-09 00:00:00.0000, 5.282959371152959E+08, -3.030111095794366E+07, -6.241286830646671E+06,
2460294.500000000, A.D. 2023-Dec-16 00:00:00.0000, 5.283721827681124E+08, -2.132506706044472E+07, -6.071034376537400E+06,
2460301.500000000, A.D. 2023-Dec-23 00:00:00.0000, 5.282749613179871E+08, -1.234194158231273E+07, -5.898791067672733E+06,
2460308.500000000, A.D. 2023-Dec-30 00:00:00.0000, 5.280039278860365E+08, -3.354671993819512E+06, -5.724609562642304E+06,
2460315.500000000, A.D. 2024-Jan-06 00:00:00.0000, 5.275587721640309E+08, 5.633792410584212E+06, -5.548542942498758E+06,
2460322.500000000, A.D. 2024-Jan-13 00:00:00.0000, 5.269392175717607E+08, 1.462048866995509E+07, -5.370644735038003E+06,
2460329.500000000, A.D. 2024-Jan-20 00:00:00.0000, 5.261450224368248E+08, 2.360243881796707E+07, -5.190969081051233E+06,
2460336.500000000, A.D. 2024-Jan-27 00:00:00.0000, 5.251759811680800E+08, 3.257664970095976E+07, -5.009570803385610E+06,
2460343.500000000, A.D. 2024-Feb-03 00:00:00.0000, 5.240319249949196E+08, 4.154011300541376E+07, -4.826505417239407E+06,
2460350.500000000, A.D. 2024-Feb-10 00:00:00.0000, 5.227127225502369E+08, 5.048980520471604E+07, -4.641829131113237E+06,
2460357.500000000, A.D. 2024-Feb-17 00:00:00.0000, 5.212182804361734E+08, 5.942268743415736E+07, -4.455598850648761E+06,
2460364.500000000, A.D. 2024-Feb-24 00:00:00.0000, 5.195485438090013E+08, 6.833570531004857E+07, -4.267872187565092E+06,
2460371.500000000, A.D. 2024-Mar-02 00:00:00.0000, 5.177034970129984E+08, 7.722578866157663E+07, -4.078707479122043E+06,
2460378.500000000, A.D. 2024-Mar-09 00:00:00.0000, 5.156831644027107E+08, 8.608985111359282E+07, -3.888163836047754E+06,
2460385.500000000, A.D. 2024-Mar-16 00:00:00.0000, 5.134876117491394E+08, 9.492478971841440E+07, -3.696301239147644E+06,
2460392.500000000, A.D. 2024-Mar-23 00:00:00.0000, 5.111169481257039E+08, 1.037274857468726E+08, -3.503180584513985E+06,
2460399.500000000, A.D. 2024-Mar-30 00:00:00.0000, 5.085713260331250E+08, 1.124948066140998E+08, -3.308863473842353E+06,
2460406.500000000, A.D. 2024-Apr-06 00:00:00.0000, 5.058509400214826E+08, 1.212236055740670E+08, -3.113412048441917E+06,
2460413.500000000, A.D. 2024-Apr-13 00:00:00.0000, 5.029560273613889E+08, 1.299107200195204E+08, -2.916889124380581E+06,
2460420.500000000, A.D. 2024-Apr-20 00:00:00.0000, 4.998868698114380E+08, 1.385529710647381E+08, -2.719358322713375E+06,
2460427.500000000, A.D. 2024-Apr-27 00:00:00.0000, 4.966437949645936E+08, 1.471471638509132E+08, -2.520884101464950E+06,
2460434.500000000, A.D. 2024-May-04 00:00:00.0000, 4.932271772610230E+08, 1.556900878719626E+08, -2.321531754847206E+06,
2460441.500000000, A.D. 2024-May-11 00:00:00.0000, 4.896374389048938E+08, 1.641785172205521E+08, -2.121367409805313E+06,
2460448.500000000, A.D. 2024-May-18 00:00:00.0000, 4.858750507663276E+08, 1.726092107782929E+08, -1.920458025486097E+06,
2460455.500000000, A.D. 2024-May-25 00:00:00.0000, 4.819405332930923E+08, 1.809789123459393E+08, -1.718871398228876E+06,
2460462.500000000, A.D. 2024-Jun-01 00:00:00.0000, 4.778344574926565E+08, 1.892843506592246E+08, -1.516676181940570E+06,
2460469.500000000, A.D. 2024-Jun-08 00:00:00.0000, 4.735574462323354E+08, 1.975222392699207E+08, -1.313941948001519E+06,
2460476.500000000, A.D. 2024-Jun-15 00:00:00.0000, 4.691101762579042E+08, 2.056892768387601E+08, -1.110739276543900E+06,
2460483.500000000, A.D. 2024-Jun-22 00:00:00.0000, 4.644933799246637E+08, 2.137821490168241E+08, -9.071396905918866E+05,
2460490.500000000, A.D. 2024-Jun-29 00:00:00.0000, 4.597078445189951E+08, 2.217975300975877E+08, -7.032153868292719E+05,
2460497.500000000, A.D. 2024-Jul-06 00:00:00.0000, 4.547544118168578E+08, 2.297320819710272E+08, -4.990392072578967E+05,
2460504.500000000, A.D. 2024-Jul-13 00:00:00.0000, 4.496339798281539E+08, 2.375824532049651E+08, -2.946847996959388E+05,
2460511.500000000, A.D. 2024-Jul-20 00:00:00.0000, 4.443475047397180E+08, 2.453452794042299E+08, -9.022669101157784E+04,
2460518.500000000, A.D. 2024-Jul-27 00:00:00.0000, 4.388960024000223E+08, 2.530171838907548E+08, 1.142597087573558E+05,
2460525.500000000, A.D. 2024-Aug-03 00:00:00.0000, 4.332805496179375E+08, 2.605947783323182E+08, 3.186981157222390E+05,
2460532.500000000, A.D. 2024-Aug-10 00:00:00.0000, 4.275022854406390E+08, 2.680746633182003E+08, 5.230113792477548E+05,
2460539.500000000, A.D. 2024-Aug-17 00:00:00.0000, 4.215624124571790E+08, 2.754534289063788E+08, 7.271214841437191E+05,
2460546.500000000, A.D. 2024-Aug-24 00:00:00.0000, 4.154621981546672E+08, 2.827276551231199E+08, 9.309495434047878E+05,
2460553.500000000, A.D. 2024-Aug-31 00:00:00.0000, 4.092029764418344E+08, 2.898939123567905E+08, 1.134415765691549E+06,
2460560.500000000, A.D. 2024-Sep-07 00:00:00.0000, 4.027861497048244E+08, 2.969487617755282E+08, 1.337439374143630E+06,
2460567.500000000, A.D. 2024-Sep-14 00:00:00.0000, 3.962131914793594E+08, 3.038887567671143E+08, 1.539938549818516E+06,
2460574.500000000, A.D. 2024-Sep-21 00:00:00.0000, 3.894856477076361E+08, 3.107104458160582E+08, 1.741830619406864E+06,
2460581.500000000, A.D. 2024-Sep-28 00:00:00.0000, 3.826051360905640E+08, 3.174103735948932E+08, 1.943032268267944E+06,
2460588.500000000, A.D. 2024-Oct-05 00:00:00.0000, 3.755733472053886E+08, 3.239850802754306E+08, 2.143459442262471E+06,
2460595.500000000, A.D. 2024-Oct-12 00:00:00.0000, 3.683920470265359E+08, 3.304311020421628E+08, 2.343027214843526E+06,
2460602.500000000, A.D. 2024-Oct-19 00:00:00.0000, 3.610630790959843E+08, 3.367449725396861E+08, 2.541649757909164E+06,
2460609.500000000, A.D. 2024-Oct-26 00:00:00.0000, 3.535883663083795E+08, 3.429232244560106E+08, 2.739240354004949E+06,
2460616.500000000, A.D. 2024-Nov-02 00:00:00.0000, 3.459699125658226E+08, 3.489623910965669E+08, 2.935711414264008E+06,
2460623.500000000, A.D. 2024-Nov-09 00:00:00.0000, 3.382098043961191E+08, 3.548590079727392E+08, 3.130974495044082E+06,
2460630.500000000, A.D. 2024-Nov-16 00:00:00.0000, 3.303102125571244E+08, 3.606096144084423E+08, 3.324940311058432E+06,
2460637.500000000, A.D. 2024-Nov-23 00:00:00.0000, 3.222733936704831E+08, 3.662107551184362E+08, 3.517518736796826E+06,
2460644.500000000, A.D. 2024-Nov-30 00:00:00.0000, 3.141016920893957E+08, 3.716589817198582E+08, 3.708618773856163E+06,
2460651.500000000, A.D. 2024-Dec-07 00:00:00.0000, 3.057975424166843E+08, 3.769508546019909E+08, 3.898148480274022E+06,
2460658.500000000, A.D. 2024-Dec-14 00:00:00.0000, 2.973634719813268E+08, 3.820829463814153E+08, 4.086015025163323E+06,
2460665.500000000, A.D. 2024-Dec-21 00:00:00.0000, 2.888021009497437E+08, 3.870518457041410E+08, 4.272124980197489E+06,
2460672.500000000, A.D. 2024-Dec-28 00:00:00.0000, 2.801161420398741E+08, 3.918541584320984E+08, 4.456384425010562E+06,
2460679.500000000, A.D. 2025-Jan-04 00:00:00.0000, 2.713084024327757E+08, 3.964865085934501E+08, 4.638698822649330E+06,
2460686.500000000, A.D. 2025-Jan-11 00:00:00.0000, 2.623817860552448E+08, 4.009455407568312E+08, 4.818972967898518E+06,
2460693.500000000, A.D. 2025-Jan-18 00:00:00.0000, 2.533392953091462E+08, 4.052279229116651E+08, 4.997111017849624E+06,
2460700.500000000, A.D. 2025-Jan-25 00:00:00.0000, 2.441840324833828E+08, 4.093303493824655E+08, 5.173016544061005E+06,
2460707.500000000, A.D. 2025-Feb-01 00:00:00.0000, 2.349192010309072E+08, 4.132495437504220E+08, 5.346592586976260E+06,
2460714.500000000, A.D. 2025-Feb-08 00:00:00.0000, 2.255481067627321E+08, 4.169822618055615E+08, 5.517741709325671E+06,
$$EOE